ORBCOMM FM115           
1 41186U 15081H   25212.93281914  .00000716  00000+0  17411-3 0  9994
2 41186  46.9971 186.7364 0001739 278.7247  81.3444 14.62560164514324
ORBCOMM FM108           
1 41187U 15081J   25213.18724887  .00000446  00000+0  13229-3 0  9997
2 41187  47.0038 254.4501 0002422 189.3944 170.6896 14.58212617513445
ORBCOMM FM117           
1 41188U 15081K   25212.74232406  .00000448  00000+0  13262-3 0  9999
2 41188  47.0002 255.2981 0003121 191.9625 168.1187 14.58215572513347
ORBCOMM FM116           
1 41189U 15081L   25212.79787403  .00000822  00000+0  21263-3 0  9993
2 41189  47.0037 344.8673 0001620 340.3859  19.6964 14.58291234512161
